start=new Date('2021-08-31T00:00:00.000Z').valueOf();
sats=[{"MEAN_ANOMALY":"262.7463","APOAPSIS":"548.785","MEAN_MOTION_DOT":"-0.00002076","GP_ID":"183732873","REV_AT_EPOCH":"2781","TLE_LINE2":"2 47799  53.0568  89.4911 0002229  97.3779 262.7463 15.06390816 27811","COUNTRY_CODE":"US","RA_OF_ASC_NODE":"89.4911","PERIAPSIS":"545.698","DECAY_DATE":null,"INCLINATION":"53.0568","SEMIMAJOR_AXIS":"6925.377","EPHEMERIS_TYPE":"0","RCS_SIZE":"LARGE","MEAN_MOTION_DDOT":"0.0000000000000","TIME_SYSTEM":"UTC","BSTAR":"-0.00012052000000","NORAD_CAT_ID":"47799","OBJECT_NAME":"STARLINK-2380","MEAN_MOTION":"15.06390816","PERIOD":"95.593","ARG_OF_PERICENTER":"97.3779","ELEMENT_SET_NO":"999","FILE":"3105635","LAUNCH_DATE":"2021-03-11","MEAN_ELEMENT_THEORY":"SGP4","ECCENTRICITY":"0.00022290","REF_FRAME":"TEME","OBJECT_TYPE":"PAYLOAD","CLASSIFICATION_TYPE":"U","CENTER_NAME":"EARTH","TLE_LINE1":"1 47799U 21018N   21242.29606957 -.00002076  00000-0 -12052-3 0  9993","SITE":"AFETR","EPOCH":"2021-08-30T07:06:20.410848","OBJECT_ID":"2021-018N"},{"COUNTRY_CODE":"US","TLE_LINE2":"2 47800  53.0556  87.3025 0001847 108.2826 251.8364 15.05616915 27554","REV_AT_EPOCH":"2755","GP_ID":"183735125","APOAPSIS":"550.894","MEAN_MOTION_DOT":"0.00100545","MEAN_ANOMALY":"251.8364","TIME_SYSTEM":"UTC","RCS_SIZE":"LARGE","MEAN_MOTION_DDOT":"0.0000000000000","EPHEMERIS_TYPE":"0","SEMIMAJOR_AXIS":"6927.750","INCLINATION":"53.0556","DECAY_DATE":null,"RA_OF_ASC_NODE":"87.3025","PERIAPSIS":"548.335","ECCENTRICITY":"0.00018470","ELEMENT_SET_NO":"999","LAUNCH_DATE":"2021-03-11","FILE":"3105730","MEAN_ELEMENT_THEORY":"SGP4","OBJECT_NAME":"STARLINK-2381","ARG_OF_PERICENTER":"108.2826","PERIOD":"95.642","MEAN_MOTION":"15.05616915","NORAD_CAT_ID":"47800","BSTAR":"0.00681550000000","OBJECT_ID":"2021-018P","EPOCH":"2021-08-30T18:46:25.599072","CENTER_NAME":"EARTH","SITE":"AFETR","TLE_LINE1":"1 47800U 21018P   21242.78224073  .00100545  00000-0  68155-2 0  9997","OBJECT_TYPE":"PAYLOAD","REF_FRAME":"TEME","CLASSIFICATION_TYPE":"U"},{"BSTAR":"-0.00022269000000","ELEMENT_SET_NO":"999","LAUNCH_DATE":"2021-03-11","FILE":"3105635","MEAN_ELEMENT_THEORY":"SGP4","ECCENTRICITY":"0.00025800","NORAD_CAT_ID":"47801","OBJECT_NAME":"STARLINK-2382","MEAN_MOTION":"15.06386645","PERIOD":"95.593","ARG_OF_PERICENTER":"96.6350","CENTER_NAME":"EARTH","SITE":"AFETR","TLE_LINE1":"1 47801U 21018Q   21242.07533457 -.00003596  00000-0 -22269-3 0  9996","EPOCH":"2021-08-30T01:48:28.906848","REF_FRAME":"TEME","OBJECT_TYPE":"PAYLOAD","CLASSIFICATION_TYPE":"U","OBJECT_ID":"2021-018Q","GP_ID":"183731376","REV_AT_EPOCH":"2772","MEAN_ANOMALY":"263.4933","APOAPSIS":"549.041","MEAN_MOTION_DOT":"-0.00003596","COUNTRY_CODE":"US","TLE_LINE2":"2 47801  53.0557  95.4776 0002580  96.6350 263.4933 15.06386645 27721","INCLINATION":"53.0557","SEMIMAJOR_AXIS":"6925.389","RA_OF_ASC_NODE":"95.4776","PERIAPSIS":"545.468","DECAY_DATE":null,"TIME_SYSTEM":"UTC","EPHEMERIS_TYPE":"0","RCS_SIZE":"LARGE","MEAN_MOTION_DDOT":"0.0000000000000"},{"REV_AT_EPOCH":"2720","GP_ID":"183735138","APOAPSIS":"550.112","MEAN_MOTION_DOT":"-0.00008115","MEAN_ANOMALY":"30.5178","COUNTRY_CODE":"US","TLE_LINE2":"2 47802  53.0586 112.2842 0000860 329.5760  30.5178 15.05648839 27200","SEMIMAJOR_AXIS":"6927.652","INCLINATION":"53.0586","DECAY_DATE":null,"RA_OF_ASC_NODE":"112.2842","PERIAPSIS":"548.921","TIME_SYSTEM":"UTC","RCS_SIZE":"LARGE","MEAN_MOTION_DDOT":"0.0000000000000","EPHEMERIS_TYPE":"0","BSTAR":"-0.00053743000000","ECCENTRICITY":"0.00008600","ELEMENT_SET_NO":"999","MEAN_ELEMENT_THEORY":"SGP4","FILE":"3105731","LAUNCH_DATE":"2021-03-11","OBJECT_NAME":"STARLINK-2383","PERIOD":"95.640","ARG_OF_PERICENTER":"329.5760","MEAN_MOTION":"15.05648839","NORAD_CAT_ID":"47802","EPOCH":"2021-08-30T19:02:40.456320","CENTER_NAME":"EARTH","TLE_LINE1":"1 47802U 21018R   21242.79352380 -.00008115  00000-0 -53743-3 0  9993","SITE":"AFETR","OBJECT_TYPE":"PAYLOAD","REF_FRAME":"TEME","CLASSIFICATION_TYPE":"U","OBJECT_ID":"2021-018R"},{"CLASSIFICATION_TYPE":"U","OBJECT_TYPE":"PAYLOAD","REF_FRAME":"TEME","EPOCH":"2021-08-30T01:31:56.405856","TLE_LINE1":"1 47803U 21018S   21242.06384729 -.00001354  00000-0 -71991-4 0  9990","SITE":"AFETR","CENTER_NAME":"EARTH","OBJECT_ID":"2021-018S","BSTAR":"-0.00007199100000","PERIOD":"95.593","ARG_OF_PERICENTER":"92.7289","MEAN_MOTION":"15.06393929","OBJECT_NAME":"STARLINK-2384","NORAD_CAT_ID":"47803","ECCENTRICITY":"0.00023610","FILE":"3105635","LAUNCH_DATE":"2021-03-11","MEAN_ELEMENT_THEORY":"SGP4","ELEMENT_SET_NO":"999","DECAY_DATE":null,"PERIAPSIS":"545.597","RA_OF_ASC_NODE":"90.5327","SEMIMAJOR_AXIS":"6925.367","INCLINATION":"53.0561","MEAN_MOTION_DDOT":"0.0000000000000","RCS_SIZE":"LARGE","EPHEMERIS_TYPE":"0","TIME_SYSTEM":"UTC","MEAN_MOTION_DOT":"-0.00001354","APOAPSIS":"548.867","MEAN_ANOMALY":"267.3970","REV_AT_EPOCH":"2778","GP_ID":"183732374","TLE_LINE2":"2 47803  53.0561  90.5327 0002361  92.7289 267.3970 15.06393929 27784","COUNTRY_CODE":"US"},{"RA_OF_ASC_NODE":"89.5701","PERIAPSIS":"545.959","DECAY_DATE":null,"INCLINATION":"53.0553","SEMIMAJOR_AXIS":"6925.398","EPHEMERIS_TYPE":"0","RCS_SIZE":"LARGE","MEAN_MOTION_DDOT":"0.0000000000000","TIME_SYSTEM":"UTC","MEAN_ANOMALY":"256.9657","APOAPSIS":"548.566","MEAN_MOTION_DOT":"-0.00001946","GP_ID":"183731626","REV_AT_EPOCH":"2781","TLE_LINE2":"2 47804  53.0553  89.5701 0001882 103.1542 256.9657 15.06383920 27816","COUNTRY_CODE":"US","OBJECT_TYPE":"PAYLOAD","REF_FRAME":"TEME","CLASSIFICATION_TYPE":"U","CENTER_NAME":"EARTH","SITE":"AFETR","TLE_LINE1":"1 47804U 21018T   21242.27764001 -.00001946  00000-0 -11183-3 0  9992","EPOCH":"2021-08-30T06:39:48.096864","OBJECT_ID":"2021-018T","BSTAR":"-0.00011183000000","NORAD_CAT_ID":"47804","OBJECT_NAME":"STARLINK-2385","PERIOD":"95.593","MEAN_MOTION":"15.06383920","ARG_OF_PERICENTER":"103.1542","ELEMENT_SET_NO":"999","FILE":"3105635","MEAN_ELEMENT_THEORY":"SGP4","LAUNCH_DATE":"2021-03-11","ECCENTRICITY":"0.00018820"},{"GP_ID":"183731876","REV_AT_EPOCH":"2782","MEAN_ANOMALY":"262.2042","MEAN_MOTION_DOT":"-0.00001852","APOAPSIS":"548.740","COUNTRY_CODE":"US","TLE_LINE2":"2 47805  53.0550  89.5236 0002178  97.9194 262.2042 15.06394196 27825","INCLINATION":"53.0550","SEMIMAJOR_AXIS":"6925.366","RA_OF_ASC_NODE":"89.5236","PERIAPSIS":"545.723","DECAY_DATE":null,"TIME_SYSTEM":"UTC","EPHEMERIS_TYPE":"0","RCS_SIZE":"LARGE","MEAN_MOTION_DDOT":"0.0000000000000","BSTAR":"-0.00010547000000","ELEMENT_SET_NO":"999","LAUNCH_DATE":"2021-03-11","FILE":"3105635","MEAN_ELEMENT_THEORY":"SGP4","ECCENTRICITY":"0.00021780","NORAD_CAT_ID":"47805","OBJECT_NAME":"STARLINK-2386","PERIOD":"95.593","MEAN_MOTION":"15.06394196","ARG_OF_PERICENTER":"97.9194","CENTER_NAME":"EARTH","SITE":"AFETR","TLE_LINE1":"1 47805U 21018U   21242.28774944 -.00001852  00000-0 -10547-3 0  9990","EPOCH":"2021-08-30T06:54:21.551616","REF_FRAME":"TEME","OBJECT_TYPE":"PAYLOAD","CLASSIFICATION_TYPE":"U","OBJECT_ID":"2021-018U"},{"MEAN_MOTION_DDOT":"0.0000000000000","RCS_SIZE":"LARGE","EPHEMERIS_TYPE":"0","TIME_SYSTEM":"UTC","DECAY_DATE":null,"PERIAPSIS":"545.601","RA_OF_ASC_NODE":"103.5238","SEMIMAJOR_AXIS":"6925.353","INCLINATION":"53.0556","TLE_LINE2":"2 47806  53.0556 103.5238 0002335  68.5239 291.5999 15.06398504 27700","COUNTRY_CODE":"US","APOAPSIS":"548.835","MEAN_MOTION_DOT":"-0.00002048","MEAN_ANOMALY":"291.5999","REV_AT_EPOCH":"2770","GP_ID":"183732128","OBJECT_ID":"2021-018V","OBJECT_TYPE":"PAYLOAD","REF_FRAME":"TEME","CLASSIFICATION_TYPE":"U","EPOCH":"2021-08-30T12:18:47.179584","SITE":"AFETR","TLE_LINE1":"1 47806U 21018V   21242.51304606 -.00002048  00000-0 -11862-3 0  9990","CENTER_NAME":"EARTH","PERIOD":"95.592","MEAN_MOTION":"15.06398504","ARG_OF_PERICENTER":"68.5239","OBJECT_NAME":"STARLINK-2387","NORAD_CAT_ID":"47806","ECCENTRICITY":"0.00023350","FILE":"3105635","LAUNCH_DATE":"2021-03-11","MEAN_ELEMENT_THEORY":"SGP4","ELEMENT_SET_NO":"999","BSTAR":"-0.00011862000000"},{"OBJECT_ID":"2021-018W","OBJECT_TYPE":"PAYLOAD","REF_FRAME":"TEME","CLASSIFICATION_TYPE":"U","EPOCH":"2021-08-29T21:45:01.888704","TLE_LINE1":"1 47807U 21018W   21241.90627186 -.00000551  00000-0 -18061-4 0  9990","SITE":"AFETR","CENTER_NAME":"EARTH","PERIOD":"95.593","MEAN_MOTION":"15.06390001","ARG_OF_PERICENTER":"109.4392","OBJECT_NAME":"STARLINK-2388","NORAD_CAT_ID":"47807","ECCENTRICITY":"0.00021180","MEAN_ELEMENT_THEORY":"SGP4","FILE":"3105635","LAUNCH_DATE":"2021-03-11","ELEMENT_SET_NO":"999","BSTAR":"-0.00001806100000","MEAN_MOTION_DDOT":"0.0000000000000","RCS_SIZE":"LARGE","EPHEMERIS_TYPE":"0","TIME_SYSTEM":"UTC","DECAY_DATE":null,"PERIAPSIS":"545.777","RA_OF_ASC_NODE":"81.3502","SEMIMAJOR_AXIS":"6925.379","INCLINATION":"53.0329","TLE_LINE2":"2 47807  53.0329  81.3502 0002118 109.4392 250.6826 15.06390001 27899","COUNTRY_CODE":"US","MEAN_MOTION_DOT":"-0.00000551","APOAPSIS":"548.711","MEAN_ANOMALY":"250.6826","REV_AT_EPOCH":"2789","GP_ID":"183732874"},{"OBJECT_ID":"2021-018X","OBJECT_TYPE":"PAYLOAD","CLASSIFICATION_TYPE":"U","REF_FRAME":"TEME","CENTER_NAME":"EARTH","SITE":"AFETR","TLE_LINE1":"1 47808U 21018X   21242.33244351 -.00002254  00000-0 -13246-3 0  9999","EPOCH":"2021-08-30T07:58:43.119264","NORAD_CAT_ID":"47808","OBJECT_NAME":"STARLINK-2389","MEAN_MOTION":"15.06385896","PERIOD":"95.593","ARG_OF_PERICENTER":"79.7114","ELEMENT_SET_NO":"999","LAUNCH_DATE":"2021-03-11","FILE":"3105635","MEAN_ELEMENT_THEORY":"SGP4","ECCENTRICITY":"0.00022510","BSTAR":"-0.00013246000000","EPHEMERIS_TYPE":"0","RCS_SIZE":"LARGE","MEAN_MOTION_DDOT":"0.0000000000000","TIME_SYSTEM":"UTC","RA_OF_ASC_NODE":"104.3311","PERIAPSIS":"545.698","DECAY_DATE":null,"INCLINATION":"53.0552","SEMIMAJOR_AXIS":"6925.392","TLE_LINE2":"2 47808  53.0552 104.3311 0002251  79.7114 280.4129 15.06385896 27670","COUNTRY_CODE":"US","MEAN_ANOMALY":"280.4129","APOAPSIS":"548.816","MEAN_MOTION_DOT":"-0.00002254","GP_ID":"183731127","REV_AT_EPOCH":"2767"}];
